# Data generated using noaatools.
# NOAA 18
# TLE:
# 1 28654U 05018A   20098.54037539  .00000075  00000-0  65128-4 0  9992
# 2 28654  99.0522 154.2797 0015184  73.2195 287.0641 14.12501077766909
object, latitude [deg], longitude [deg], altitude [km], comment
AOS,  79.9993126,  66.5915119,   0.0000000, 2020-04-12 09:01:03.063476+00:00
LOS,  28.4719570,   4.0109285,   0.0000000, 2020-04-12 09:17:06.466954+00:00
Upper Left Corner,  84.2340225,  43.4762896,   0.0000000, 2020-04-12 09:01:03.063476+00:00
Upper Right Corner,  75.1354120,  75.4354967,   0.0000000, 2020-04-12 09:01:03.063476+00:00
Lower Left Corner,  29.5837938,  -1.8105571,   0.0000000, 2020-04-12 09:17:06.466954+00:00
lower Right Corner,  27.1178833,   9.6983071,   0.0000000, 2020-04-12 09:17:06.466954+00:00
